OBJECT_NAME,OBJECT_ID,EPOCH,MEAN_MOTION,ECCENTRICITY,INCLINATION,RA_OF_ASC_NODE,ARG_OF_PERICENTER,MEAN_ANOMALY,EPHEMERIS_TYPE,CLASSIFICATION_TYPE,NORAD_CAT_ID,ELEMENT_SET_NO,REV_AT_EPOCH,BSTAR,MEAN_MOTION_DOT,MEAN_MOTION_DDOT
M2 PATHFINDER,2020-037E,2026-07-21T02:15:02.643840,15.04805545,.00123667,97.8142,33.7094,43.6846,316.5356,0,U,45727,999,33059,.12433735E-3,.1693E-4,0
NETSAT-4,2020-068U,2026-07-21T06:28:32.346912,15.44889408,.00055019,97.8612,213.2778,172.2296,187.9038,0,U,46504,999,32103,.29595451E-3,.13816E-3,0
NETSAT-3,2020-068V,2026-07-20T23:27:46.152864,15.43735580,.00045252,97.8664,211.1373,187.9460,172.1715,0,U,46505,999,32089,.30239743E-3,.13574E-3,0
NETSAT-1,2020-068W,2026-07-20T23:13:42.133728,15.35328542,.00028347,97.8764,205.0500,229.1239,130.9758,0,U,46506,999,32048,.26429852E-3,.8981E-4,0
NETSAT-2,2020-068X,2026-07-21T06:13:13.050912,15.47339398,.00030425,97.8624,213.2935,184.0626,176.0599,0,U,46507,999,32100,.36143022E-3,.18382E-3,0
GREENCUBE (IO-117),2022-080E,2026-07-21T06:26:53.364480,6.42583331,.0009377,70.1384,286.3946,282.6707,77.2904,0,U,53109,999,9425,0,-.3E-7,0
SITRO-AIS 5 (KATYS),2023-091L,2026-07-21T06:41:20.014368,15.30146801,.00100147,97.5038,266.5164,350.3014,9.8031,0,U,57176,999,16955,.30074118E-3,.8709E-4,0
SITRO-AIS 6 (CHIRKIN),2023-091AC,2026-07-21T06:31:53.083488,15.26505191,.00105477,97.5046,265.4447,354.9963,5.1168,0,U,57192,999,16948,.27341612E-3,.7074E-4,0
SITRO-AIS 8 (ANOKHIN),2023-091AD,2026-07-21T05:37:51.527424,15.32956194,.00089121,97.5034,268.2026,345.1794,14.9186,0,U,57193,999,16966,.32861606E-3,.10395E-3,0
SITRO-AIS 7 (FARTUSHNIY),2023-091AE,2026-07-21T06:46:42.501504,15.26177474,.00105039,97.5042,265.2619,356.2724,3.8434,0,U,57194,999,16947,.26684082E-3,.6834E-4,0
SITRO-AIS 10 (BURDAEV),2023-091AK,2026-07-21T05:58:41.601504,15.39771784,.00044443,97.5058,273.6327,313.4768,46.6107,0,U,57199,999,17000,.38156063E-3,.1504E-3,0
SITRO-AIS 9 (SHCHUKIN),2023-091AM,2026-07-21T05:19:10.412256,15.39252459,.00047069,97.5057,273.3071,314.3021,45.7838,0,U,57201,999,16998,.38836693E-3,.15051E-3,0
SITRO-AIS 12 (SMIRENNIY),2023-091AQ,2026-07-21T06:29:54.860640,15.39550801,.00043463,97.5069,273.8462,305.6656,54.4184,0,U,57204,999,17001,.39081739E-3,.15295E-3,0
SITRO-AIS 11 (SHEFFER),2023-091AU,2026-07-21T06:35:19.819680,15.39999386,.00042701,97.5068,274.1187,305.1518,54.9327,0,U,57208,999,17003,.40261882E-3,.15995E-3,0
SITRO-AIS 25,2024-039R,2026-07-21T06:37:50.312064,14.93666566,.01433082,95.3888,258.5171,208.0382,151.3073,0,U,59066,999,12981,.16032718E-3,.2039E-4,0
SITRO-AIS 26,2024-039S,2026-07-21T06:46:35.816736,14.93456933,.01436518,95.3889,258.4119,208.6375,150.6909,0,U,59067,999,12980,.15953223E-3,.2019E-4,0
SITRO-AIS 27,2024-039T,2026-07-21T07:26:21.465024,14.93883950,.01427688,95.3892,258.7186,207.0675,152.3058,0,U,59068,999,12983,.21324646E-3,.2737E-4,0
SITRO-AIS 28,2024-039U,2026-07-21T06:52:46.139232,14.93916223,.01426502,95.3892,258.7517,206.9784,152.3978,0,U,59071,999,12983,.17129294E-3,.2193E-4,0
GRBBETA,2024-128C,2026-07-21T04:45:30.523680,15.06835113,.00362625,61.9889,96.9197,142.0386,218.3274,0,U,60237,999,11139,.16705753E-3,.2318E-4,0
OOV-CUBE (TUBSAT-30),2024-128F,2026-07-21T06:07:23.126592,15.02890258,.00403213,61.9942,106.7689,141.3942,219.0045,0,U,60240,999,11123,.11387515E-3,.1346E-4,0
ROBUSTA-3A (MEDITERRANEE),2024-128J,2026-07-21T03:07:45.791040,15.12038315,.00372952,61.9861,88.1746,134.9343,225.4789,0,U,60243,999,11155,.31557158E-3,.5316E-4,0
LASARSAT,2024-247Q,2026-07-21T01:29:22.653600,15.48302336,.00082489,44.9738,71.5646,202.6776,157.3752,0,U,62391,999,8856,.50949715E-3,.27288E-3,0
CROCUBE,2024-247T,2026-07-21T00:21:52.789248,15.50495129,.00084626,44.9714,68.5662,208.9546,151.0877,0,U,62394,999,8859,.54332171E-3,.31509E-3,0
FORESAIL-1 PRIME,2025-276DS,2026-07-21T02:57:19.863648,15.18969690,.00023979,97.4183,274.7763,30.1699,329.9673,0,U,66778,999,3555,.15561619E-3,.3186E-4,0
KNACKSAT-2,1998-067XZ,2026-07-21T00:20:48.621696,15.62823140,.00078407,51.6271,123.9445,347.8251,12.2553,0,U,67683,999,2556,.48283553E-3,.44153E-3,0
