M2 PATHFINDER           
1 45727U 20037E   26202.09378060  .00001693  00000+0  12434-3 0  9997
2 45727  97.8142  33.7094 0012366  43.6846 316.5356 15.04805545330599
NETSAT-4                
1 46504U 20068U   26202.26981883  .00013816  00000+0  29595-3 0  9993
2 46504  97.8612 213.2778 0005501 172.2296 187.9038 15.44889408321030
NETSAT-3                
1 46505U 20068V   26201.97761751  .00013574  00000+0  30240-3 0  9991
2 46505  97.8664 211.1373 0004525 187.9460 172.1715 15.43735580320898
NETSAT-1                
1 46506U 20068W   26201.96784877  .00008981  00000+0  26430-3 0  9997
2 46506  97.8764 205.0500 0002834 229.1239 130.9758 15.35328542320489
NETSAT-2                
1 46507U 20068X   26202.25917883  .00018382  00000+0  36143-3 0  9994
2 46507  97.8624 213.2935 0003042 184.0626 176.0599 15.47339398321006
GREENCUBE (IO-117)      
1 53109U 22080E   26202.26867320 -.00000003  00000+0  00000+0 0  9998
2 53109  70.1384 286.3946 0009377 282.6707  77.2904  6.42583331 94253
SITRO-AIS 5 (KATYS)     
1 57176U 23091L   26202.27870387  .00008709  00000+0  30074-3 0  9995
2 57176  97.5038 266.5164 0010014 350.3014   9.8031 15.30146801169558
SITRO-AIS 6 (CHIRKIN)   
1 57192U 23091AC  26202.27214217  .00007074  00000+0  27342-3 0  9995
2 57192  97.5046 265.4447 0010547 354.9963   5.1168 15.26505191169489
SITRO-AIS 8 (ANOKHIN)   
1 57193U 23091AD  26202.23462416  .00010395  00000+0  32862-3 0  9991
2 57193  97.5034 268.2026 0008912 345.1794  14.9186 15.32956194169666
SITRO-AIS 7 (FARTUSHNIY)
1 57194U 23091AE  26202.28243636  .00006834  00000+0  26684-3 0  9996
2 57194  97.5042 265.2619 0010503 356.2724   3.8434 15.26177474169477
SITRO-AIS 10 (BURDAEV)  
1 57199U 23091AK  26202.24909261  .00015040  00000+0  38156-3 0  9996
2 57199  97.5058 273.6327 0004444 313.4768  46.6107 15.39771784170009
SITRO-AIS 9 (SHCHUKIN)  
1 57201U 23091AM  26202.22164829  .00015051  00000+0  38837-3 0  9999
2 57201  97.5057 273.3071 0004706 314.3021  45.7838 15.39252459169987
SITRO-AIS 12 (SMIRENNIY)
1 57204U 23091AQ  26202.27077385  .00015295  00000+0  39082-3 0  9990
2 57204  97.5069 273.8462 0004346 305.6656  54.4184 15.39550801170018
SITRO-AIS 11 (SHEFFER)  
1 57208U 23091AU  26202.27453495  .00015995  00000+0  40262-3 0  9993
2 57208  97.5068 274.1187 0004270 305.1518  54.9327 15.39999386170038
SITRO-AIS 25            
1 59066U 24039R   26202.27627676  .00002039  00000+0  16033-3 0  9998
2 59066  95.3888 258.5171 0143308 208.0382 151.3073 14.93666566129813
SITRO-AIS 26            
1 59067U 24039S   26202.28235899  .00002019  00000+0  15953-3 0  9990
2 59067  95.3889 258.4119 0143651 208.6375 150.6909 14.93456933129809
SITRO-AIS 27            
1 59068U 24039T   26202.30997066  .00002737  00000+0  21325-3 0  9992
2 59068  95.3892 258.7186 0142768 207.0675 152.3058 14.93883950129835
SITRO-AIS 28            
1 59071U 24039U   26202.28664513  .00002193  00000+0  17129-3 0  9994
2 59071  95.3892 258.7517 0142650 206.9784 152.3978 14.93916223129837
GRBBETA                 
1 60237U 24128C   26202.19826995  .00002318  00000+0  16706-3 0  9992
2 60237  61.9889  96.9197 0036262 142.0386 218.3274 15.06835113111390
OOV-CUBE (TUBSAT-30)    
1 60240U 24128F   26202.25512878  .00001346  00000+0  11388-3 0  9996
2 60240  61.9942 106.7689 0040321 141.3942 219.0045 15.02890258111235
ROBUSTA-3A (MEDITERRAN*)
1 60243U 24128J   26202.13039110  .00005316  00000+0  31557-3 0  9990
2 60243  61.9861  88.1746 0037295 134.9343 225.4789 15.12038315111554
LASARSAT                
1 62391U 24247Q   26202.06206775  .00027288  00000+0  50950-3 0  9993
2 62391  44.9738  71.5646 0008248 202.6776 157.3752 15.48302336 88561
CROCUBE                 
1 62394U 24247T   26202.01519432  .00031509  00000+0  54332-3 0  9997
2 62394  44.9714  68.5662 0008462 208.9546 151.0877 15.50495129 88592
FORESAIL-1 PRIME        
1 66778U 25276DS  26202.12314657  .00003186  00000+0  15562-3 0  9996
2 66778  97.4183 274.7763 0002397  30.1699 329.9673 15.18969690 35554
KNACKSAT-2              
1 67683U 98067XZ  26202.01445164  .00044153  00000+0  48284-3 0  9992
2 67683  51.6271 123.9445 0007840 347.8251  12.2553 15.62823140 25569
